CORVUS BC1              
1 42847U 17042Y   26068.93334460  .00004853  00000+0  33801-3 0  9990
2 42847  97.3986 234.9925 0013283  71.1953 289.0714 15.05817892472152
STARLINK-3852           
1 52345U 22045Q   26068.67518447  .00000880  00000+0  73364-4 0  9998
2 52345  53.2166 199.3501 0001303  90.9929 269.1213 15.08837906215769
