[{"OBJECT_NAME":"CORVUS BC1","OBJECT_ID":"2017-042Y","EPOCH":"2026-03-09T22:24:00.973440","MEAN_MOTION":15.05817893,"ECCENTRICITY":0.00132832,"INCLINATION":97.3986,"RA_OF_ASC_NODE":234.9925,"ARG_OF_PERICENTER":71.1953,"MEAN_ANOMALY":289.0714,"EPHEMERIS_TYPE":0,"CLASSIFICATION_TYPE":"U","NORAD_CAT_ID":42847,"ELEMENT_SET_NO":999,"REV_AT_EPOCH":47215,"BSTAR":0.00033801202,"MEAN_MOTION_DOT":4.853e-5,"MEAN_MOTION_DDOT":0},{"OBJECT_NAME":"STARLINK-3852","OBJECT_ID":"2022-045Q","EPOCH":"2026-03-09T16:12:15.938208","MEAN_MOTION":15.08837906,"ECCENTRICITY":0.00013032,"INCLINATION":53.2166,"RA_OF_ASC_NODE":199.3501,"ARG_OF_PERICENTER":90.9929,"MEAN_ANOMALY":269.1213,"EPHEMERIS_TYPE":0,"CLASSIFICATION_TYPE":"U","NORAD_CAT_ID":52345,"ELEMENT_SET_NO":999,"REV_AT_EPOCH":21576,"BSTAR":7.3363788e-5,"MEAN_MOTION_DOT":8.8e-6,"MEAN_MOTION_DDOT":0}]
